[{"OBJECT_NAME":"STARLINK-36329","OBJECT_ID":"2026-026U","EPOCH":"2026-03-09T22:00:01.999584","MEAN_MOTION":15.50051843,"ECCENTRICITY":0.00015691,"INCLINATION":97.2841,"RA_OF_ASC_NODE":123.562,"ARG_OF_PERICENTER":77.7397,"MEAN_ANOMALY":270.0665,"EPHEMERIS_TYPE":0,"CLASSIFICATION_TYPE":"U","NORAD_CAT_ID":67739,"ELEMENT_SET_NO":999,"REV_AT_EPOCH":535,"BSTAR":-0.037726125,"MEAN_MOTION_DOT":-0.0186882,"MEAN_MOTION_DDOT":0},{"OBJECT_NAME":"FLOCK 4G-35","OBJECT_ID":"2025-009CC","EPOCH":"2026-03-09T18:16:29.173728","MEAN_MOTION":15.33603414,"ECCENTRICITY":0.00032423,"INCLINATION":97.4012,"RA_OF_ASC_NODE":151.7924,"ARG_OF_PERICENTER":307.1268,"MEAN_ANOMALY":52.9678,"EPHEMERIS_TYPE":0,"CLASSIFICATION_TYPE":"U","NORAD_CAT_ID":62683,"ELEMENT_SET_NO":999,"REV_AT_EPOCH":12140,"BSTAR":0.00099271567,"MEAN_MOTION_DOT":0.00032274,"MEAN_MOTION_DDOT":0}]
